[{"OBJECT_NAME":"STARLINK-5525","OBJECT_ID":"2023-094A","EPOCH":"2026-03-09T22:00:01.999584","MEAN_MOTION":15.1907156,"ECCENTRICITY":0.00012507,"INCLINATION":43.0019,"RA_OF_ASC_NODE":28.7896,"ARG_OF_PERICENTER":233.0657,"MEAN_ANOMALY":277.2723,"EPHEMERIS_TYPE":0,"CLASSIFICATION_TYPE":"U","NORAD_CAT_ID":57218,"ELEMENT_SET_NO":999,"REV_AT_EPOCH":567,"BSTAR":0.056169201,"MEAN_MOTION_DOT":0.01299999,"MEAN_MOTION_DDOT":0},{"OBJECT_NAME":"HYPERFIELD-1B","OBJECT_ID":"2025-135AA","EPOCH":"2026-03-09T21:55:06.230784","MEAN_MOTION":15.21415423,"ECCENTRICITY":5.345e-5,"INCLINATION":97.4541,"RA_OF_ASC_NODE":185.0442,"ARG_OF_PERICENTER":81.1107,"MEAN_ANOMALY":279.0189,"EPHEMERIS_TYPE":0,"CLASSIFICATION_TYPE":"U","NORAD_CAT_ID":64552,"ELEMENT_SET_NO":999,"REV_AT_EPOCH":3978,"BSTAR":0.00030259175,"MEAN_MOTION_DOT":6.723e-5,"MEAN_MOTION_DDOT":0}]
